STARLINK-37015          
1 68825U 26089Z   26182.12899799  .00023894  00000+0  74027-3 0  9995
2 68825  97.2821  29.1185 0002320  76.4643 283.6858 15.33436399 10796
STARLINK-37475          
1 68839U 26094A   26181.99899053  .00027469  00000+0  84978-3 0  9991
2 68839  97.2826 196.2274 0001442  85.2422 274.8986 15.33456567 10162
STARLINK-37452          
1 68840U 26094B   26181.99626851  .00030251  00000+0  93473-3 0  9990
2 68840  97.2841 196.2306 0001363 105.7689 254.3704 15.33474975 10166
STARLINK-37495          
1 68841U 26094C   26181.99355282  .00029171  00000+0  90190-3 0  9990
2 68841  97.2835 196.2332 0002319 106.3992 253.7506 15.33461975 10164
STARLINK-37524          
1 68842U 26094D   26182.05607477  .00007056  00000+0  22059-3 0  9992
2 68842  97.2835 196.2999 0000969  73.3065 286.8284 15.33459684 10172
STARLINK-37219          
1 68843U 26094E   26182.02385378  .00288777  00000+0  18528-2 0  9999
2 68843  97.2826 198.7853 0002307 144.5626 215.5793 15.75430627 10335
STARLINK-37538          
1 68844U 26094F   26181.98811125  .00023618  00000+0  73107-3 0  9994
2 68844  97.2835 196.2408 0002091 112.6432 247.5032 15.33467625 10160
STARLINK-37539          
1 68845U 26094G   26182.04794019  .00027018  00000+0  83672-3 0  9991
2 68845  97.2808 196.3124 0001250 119.5919 240.5449 15.33425956 10176
STARLINK-37547          
1 68846U 26094H   26182.05064671  .00039440  00000+0  12166-2 0  9998
2 68846  97.2816 196.3084 0001421 113.4159 246.7233 15.33471780 10175
STARLINK-37465          
1 68847U 26094J   26182.04521906  .00018592  00000+0  57653-3 0  9993
2 68847  97.2828 196.3154 0001418  86.3261 273.8144 15.33459509 10172
STARLINK-37373          
1 68848U 26094K   26182.04249759  .00027512  00000+0  85027-3 0  9995
2 68848  97.2826 196.3195 0000954  82.7399 277.3953 15.33487260 10174
STARLINK-37492          
1 68849U 26094L   26182.03977066  .00023215  00000+0  71866-3 0  9996
2 68849  97.2822 196.3230 0001755 116.1299 244.0125 15.33468976 10177
STARLINK-37482          
1 68850U 26094M   26182.03433455  .00022201  00000+0  68752-3 0  9991
2 68850  97.2853 196.3315 0000988  79.4778 280.6576 15.33466665 10176
STARLINK-37382          
1 68851U 26094N   26182.03705433  .00017254  00000+0  53539-3 0  9999
2 68851  97.2825 196.3259 0002293 123.3635 236.7828 15.33453557 10173
STARLINK-37423          
1 68852U 26094P   26182.02889634  .00036097  00000+0  11141-2 0  9993
2 68852  97.2840 196.3396 0000731 113.7150 246.4170 15.33473823 10179
STARLINK-37476          
1 68853U 26094Q   26182.03161580  .00033419  00000+0  10321-2 0  9992
2 68853  97.2826 196.3342 0002447 110.8428 249.3077 15.33469637 10173
STARLINK-37463          
1 68854U 26094R   26182.02620081  .00030491  00000+0  94288-3 0  9990
2 68854  97.2828 196.3402 0001746  94.9143 265.2299 15.33447447 10178
STARLINK-37467          
1 68855U 26094S   26182.02344552  .00040707  00000+0  12545-2 0  9993
2 68855  97.2830 196.3445 0000709 103.9960 256.1361 15.33495877 10174
STARLINK-37483          
1 68856U 26094T   26182.02076125  .00030382  00000+0  93888-3 0  9990
2 68856  97.2824 196.3478 0001927  81.2582 278.8878 15.33469459 10176
STARLINK-37468          
1 68857U 26094U   26182.01801352  .00032609  00000+0  10069-2 0  9991
2 68857  97.2820 196.3507 0001277 110.7703 249.3676 15.33481200 10174
STARLINK-37441          
1 68858U 26094V   26182.01530574  .00029422  00000+0  90967-3 0  9992
2 68858  97.2839 196.3574 0002951 114.5851 245.5700 15.33458229 10176
STARLINK-37488          
1 68859U 26094W   26182.01259079  .00012730  00000+0  39599-3 0  9999
2 68859  97.2827 196.3595 0002132  96.4127 263.7359 15.33442207 10173
STARLINK-37388          
1 68860U 26094X   26182.00714663  .00035605  00000+0  10995-2 0  9999
2 68860  97.2828 196.3662 0001235 122.4795 237.6568 15.33458053 10173
STARLINK-37479          
1 68861U 26094Y   26182.00170578  .00024122  00000+0  74661-3 0  9994
2 68861  97.2839 196.3724 0001735 124.1775 235.9632 15.33466238 10174
STARLINK-37453          
1 68862U 26094Z   26182.00986256  .00028035  00000+0  86770-3 0  9994
2 68862  97.2826 196.3633 0000810 108.6397 251.4933 15.33437993 10173
STARLINK-37430          
1 68863U 26094AA  26182.00442804  .00020190  00000+0  62548-3 0  9992
2 68863  97.2826 196.3703 0001777  88.4417 271.7029 15.33473229 10176
STARLINK-37527          
1 68895U 26097A   26182.10407659  .00029597  00000+0  91510-3 0  9991
2 68895  97.2841  17.3375 0001267 110.2650 249.8729 15.33458794  9612
STARLINK-37432          
1 68896U 26097B   26182.07144809  .00013096  00000+0  40713-3 0  9999
2 68896  97.2841  17.3817 0002467 102.9322 257.2196 15.33454531  9617
STARLINK-37534          
1 68897U 26097C   26182.12038586  .00031309  00000+0  96764-3 0  9994
2 68897  97.2810  17.4629 0002917  82.7542 277.4032 15.33458041  9629
STARLINK-37386          
1 68898U 26097D   26182.08776365  .00019077  00000+0  59151-3 0  9991
2 68898  97.2848  17.3560 0001619  91.7916 268.3512 15.33457030  9615
