OBJECT_NAME,OBJECT_ID,EPOCH,MEAN_MOTION,ECCENTRICITY,INCLINATION,RA_OF_ASC_NODE,ARG_OF_PERICENTER,MEAN_ANOMALY,EPHEMERIS_TYPE,CLASSIFICATION_TYPE,NORAD_CAT_ID,ELEMENT_SET_NO,REV_AT_EPOCH,BSTAR,MEAN_MOTION_DOT,MEAN_MOTION_DDOT
STARLINK-37015,2026-089Z,2026-07-01T03:05:45.426336,15.33436399,.000232,97.2821,29.1185,76.4643,283.6858,0,U,68825,999,1079,.74027E-3,.23894E-3,0
STARLINK-37475,2026-094A,2026-06-30T23:58:32.781792,15.33456567,.0001442,97.2826,196.2274,85.2422,274.8986,0,U,68839,999,1016,.84978E-3,.27469E-3,0
STARLINK-37452,2026-094B,2026-06-30T23:54:37.599264,15.33474975,.0001363,97.2841,196.2306,105.7689,254.3704,0,U,68840,999,1016,.93473E-3,.30251E-3,0
STARLINK-37495,2026-094C,2026-06-30T23:50:42.963648,15.33461975,.0002319,97.2835,196.2332,106.3992,253.7506,0,U,68841,999,1016,.9019E-3,.29171E-3,0
STARLINK-37524,2026-094D,2026-07-01T01:20:44.860128,15.33459684,.0000969,97.2835,196.2999,73.3065,286.8284,0,U,68842,999,1017,.22059E-3,.7056E-4,0
STARLINK-37219,2026-094E,2026-07-01T00:34:20.966592,15.75430627,.0002307,97.2826,198.7853,144.5626,215.5793,0,U,68843,999,1033,.18528E-2,.288777E-2,0
STARLINK-37538,2026-094F,2026-06-30T23:42:52.812000,15.33467625,.0002091,97.2835,196.2408,112.6432,247.5032,0,U,68844,999,1016,.73107E-3,.23618E-3,0
STARLINK-37539,2026-094G,2026-07-01T01:09:02.032416,15.33425956,.000125,97.2808,196.3124,119.5919,240.5449,0,U,68845,999,1017,.83672E-3,.27018E-3,0
STARLINK-37547,2026-094H,2026-07-01T01:12:55.875744,15.33471780,.0001421,97.2816,196.3084,113.4159,246.7233,0,U,68846,999,1017,.12166E-2,.3944E-3,0
STARLINK-37465,2026-094J,2026-07-01T01:05:06.926784,15.33459509,.0001418,97.2828,196.3154,86.3261,273.8144,0,U,68847,999,1017,.57653E-3,.18592E-3,0
STARLINK-37373,2026-094K,2026-07-01T01:01:11.791776,15.33487260,.0000954,97.2826,196.3195,82.7399,277.3953,0,U,68848,999,1017,.85027E-3,.27512E-3,0
STARLINK-37492,2026-094L,2026-07-01T00:57:16.185024,15.33468976,.0001755,97.2822,196.3230,116.1299,244.0125,0,U,68849,999,1017,.71866E-3,.23215E-3,0
STARLINK-37482,2026-094M,2026-07-01T00:49:26.505120,15.33466665,.0000988,97.2853,196.3315,79.4778,280.6576,0,U,68850,999,1017,.68752E-3,.22201E-3,0
STARLINK-37382,2026-094N,2026-07-01T00:53:21.494112,15.33453557,.0002293,97.2825,196.3259,123.3635,236.7828,0,U,68851,999,1017,.53539E-3,.17254E-3,0
STARLINK-37423,2026-094P,2026-07-01T00:41:36.643776,15.33473823,.0000731,97.2840,196.3396,113.7150,246.4170,0,U,68852,999,1017,.11141E-2,.36097E-3,0
STARLINK-37476,2026-094Q,2026-07-01T00:45:31.605120,15.33469637,.0002447,97.2826,196.3342,110.8428,249.3077,0,U,68853,999,1017,.10321E-2,.33419E-3,0
STARLINK-37463,2026-094R,2026-07-01T00:37:43.749984,15.33447447,.0001746,97.2828,196.3402,94.9143,265.2299,0,U,68854,999,1017,.94288E-3,.30491E-3,0
STARLINK-37467,2026-094S,2026-07-01T00:33:45.692928,15.33495877,.0000709,97.2830,196.3445,103.9960,256.1361,0,U,68855,999,1017,.12545E-2,.40707E-3,0
STARLINK-37483,2026-094T,2026-07-01T00:29:53.772000,15.33469459,.0001927,97.2824,196.3478,81.2582,278.8878,0,U,68856,999,1017,.93888E-3,.30382E-3,0
STARLINK-37468,2026-094U,2026-07-01T00:25:56.368128,15.33481200,.0001277,97.2820,196.3507,110.7703,249.3676,0,U,68857,999,1017,.10069E-2,.32609E-3,0
STARLINK-37441,2026-094V,2026-07-01T00:22:02.415936,15.33458229,.0002951,97.2839,196.3574,114.5851,245.5700,0,U,68858,999,1017,.90967E-3,.29422E-3,0
STARLINK-37488,2026-094W,2026-07-01T00:18:07.844256,15.33442207,.0002132,97.2827,196.3595,96.4127,263.7359,0,U,68859,999,1017,.39599E-3,.1273E-3,0
STARLINK-37388,2026-094X,2026-07-01T00:10:17.468832,15.33458053,.0001235,97.2828,196.3662,122.4795,237.6568,0,U,68860,999,1017,.10995E-2,.35605E-3,0
STARLINK-37479,2026-094Y,2026-07-01T00:02:27.379392,15.33466238,.0001735,97.2839,196.3724,124.1775,235.9632,0,U,68861,999,1017,.74661E-3,.24122E-3,0
STARLINK-37453,2026-094Z,2026-07-01T00:14:12.125184,15.33437993,.000081,97.2826,196.3633,108.6397,251.4933,0,U,68862,999,1017,.8677E-3,.28035E-3,0
STARLINK-37430,2026-094AA,2026-07-01T00:06:22.582656,15.33473229,.0001777,97.2826,196.3703,88.4417,271.7029,0,U,68863,999,1017,.62548E-3,.2019E-3,0
STARLINK-37527,2026-097A,2026-07-01T02:29:52.217376,15.33458794,.0001267,97.2841,17.3375,110.2650,249.8729,0,U,68895,999,961,.9151E-3,.29597E-3,0
STARLINK-37432,2026-097B,2026-07-01T01:42:53.114976,15.33454531,.0002467,97.2841,17.3817,102.9322,257.2196,0,U,68896,999,961,.40713E-3,.13096E-3,0
STARLINK-37534,2026-097C,2026-07-01T02:53:21.338304,15.33458041,.0002917,97.2810,17.4629,82.7542,277.4032,0,U,68897,999,962,.96764E-3,.31309E-3,0
STARLINK-37386,2026-097D,2026-07-01T02:06:22.779360,15.33457030,.0001619,97.2848,17.3560,91.7916,268.3512,0,U,68898,999,961,.59151E-3,.19077E-3,0
